STARLINK-36099          
1 66797U 25278G   25361.73234066  .00120548  00000+0  20267-2 0  9995
2 66797  43.0011 162.5224 0002951 282.0650  77.9879 15.50610104  4181
STARLINK-36041          
1 66798U 25278H   25361.73199912  .00111573  00000+0  18794-2 0  9996
2 66798  43.0014 162.5194 0002267 275.0823  84.9778 15.50596236  4180
STARLINK-36044          
1 66799U 25278J   25361.73165679  .00081229  00000+0  13744-2 0  9994
2 66799  43.0000 162.5171 0001838 262.4277  97.6375 15.50614183  4183
STARLINK-35996          
1 66800U 25278K   25361.91671296 -.00015146  00000+0 -25298-3 0  9999
2 66800  43.0001 161.4270 0001483 271.7242  46.4268 15.50564594  5191
STARLINK-36080          
1 66801U 25278L   25361.91671296 -.02159090  00000+0 -54437-1 0  9994
2 66801  43.0003 161.4611 0001867 286.2403  17.3804 15.42883558  5399
STARLINK-35604          
1 66802U 25278M   25361.73131346  .00083220  00000+0  14088-2 0  9998
2 66802  43.0002 162.5140 0001091 255.4120 104.6619 15.50589534  4187
STARLINK-35565          
1 66803U 25278N   25361.91671296  .00134315  00000+0  31727-2 0  9993
2 66803  42.9998 161.6683 0001748 278.5881 299.7609 15.40639017  5481
STARLINK-36038          
1 66804U 25278P   25361.91671296  .00134076  00000+0  31669-2 0  9993
2 66804  42.9998 161.6384 0001835 275.7219 315.0605 15.40641961  5390
STARLINK-36049          
1 66805U 25278Q   25361.91671296  .00104179  00000+0  24732-2 0  9998
2 66805  42.9999 161.5767 0001993 277.2210 338.4645 15.40627720  5399
STARLINK-36069          
1 66806U 25278R   25361.91671296 -.01995500  00000+0 -46583-1 0  9995
2 66806  43.0002 161.4443 0001498 271.4626  39.4287 15.44842429  5191
STARLINK-36000          
1 66807U 25278S   25361.72896557  .00132524  00000+0  22282-2 0  9991
2 66807  42.9995 162.4941 0008371 252.3089 107.6857 15.50528266  4189
STARLINK-36071          
1 66808U 25278T   25361.92182097  .00112014  00000+0  18884-2 0  9996
2 66808  43.0012 161.3607 0005479 277.2861  82.7377 15.50559776  4213
