CCSDS_OMM_VERS = 2.0
CREATION_DATE  = 
ORIGINATOR     = 

OBJECT_NAME    = STARLINK-36099
OBJECT_ID      = 2025-278G
CENTER_NAME    = EARTH
REF_FRAME      = TEME
TIME_SYSTEM    = UTC
MEAN_ELEMENT_THEORY = SGP/SGP4

EPOCH          = 2025-12-27T17:34:34.233024
MEAN_MOTION    = 15.50610104
ECCENTRICITY   = .00029513
INCLINATION    = 43.0011
RA_OF_ASC_NODE = 162.5224
ARG_OF_PERICENTER = 282.0650
MEAN_ANOMALY   = 77.9879

EPHEMERIS_TYPE = 0
CLASSIFICATION_TYPE = U
NORAD_CAT_ID   = 66797
ELEMENT_SET_NO = 999
REV_AT_EPOCH   = 418
BSTAR          = .20267382E-2
MEAN_MOTION_DOT = .120548E-2
MEAN_MOTION_DDOT = 0

CCSDS_OMM_VERS = 2.0
CREATION_DATE  = 
ORIGINATOR     = 

OBJECT_NAME    = STARLINK-36041
OBJECT_ID      = 2025-278H
CENTER_NAME    = EARTH
REF_FRAME      = TEME
TIME_SYSTEM    = UTC
MEAN_ELEMENT_THEORY = SGP/SGP4

EPOCH          = 2025-12-27T17:34:04.723968
MEAN_MOTION    = 15.50596236
ECCENTRICITY   = .00022673
INCLINATION    = 43.0014
RA_OF_ASC_NODE = 162.5194
ARG_OF_PERICENTER = 275.0823
MEAN_ANOMALY   = 84.9778

EPHEMERIS_TYPE = 0
CLASSIFICATION_TYPE = U
NORAD_CAT_ID   = 66798
ELEMENT_SET_NO = 999
REV_AT_EPOCH   = 418
BSTAR          = .18794413E-2
MEAN_MOTION_DOT = .111573E-2
MEAN_MOTION_DDOT = 0

CCSDS_OMM_VERS = 2.0
CREATION_DATE  = 
ORIGINATOR     = 

OBJECT_NAME    = STARLINK-36044
OBJECT_ID      = 2025-278J
CENTER_NAME    = EARTH
REF_FRAME      = TEME
TIME_SYSTEM    = UTC
MEAN_ELEMENT_THEORY = SGP/SGP4

EPOCH          = 2025-12-27T17:33:35.146656
MEAN_MOTION    = 15.50614183
ECCENTRICITY   = .00018381
INCLINATION    = 43.0000
RA_OF_ASC_NODE = 162.5171
ARG_OF_PERICENTER = 262.4277
MEAN_ANOMALY   = 97.6375

EPHEMERIS_TYPE = 0
CLASSIFICATION_TYPE = U
NORAD_CAT_ID   = 66799
ELEMENT_SET_NO = 999
REV_AT_EPOCH   = 418
BSTAR          = .13743594E-2
MEAN_MOTION_DOT = .81229E-3
MEAN_MOTION_DDOT = 0

CCSDS_OMM_VERS = 2.0
CREATION_DATE  = 
ORIGINATOR     = 

OBJECT_NAME    = STARLINK-35996
OBJECT_ID      = 2025-278K
CENTER_NAME    = EARTH
REF_FRAME      = TEME
TIME_SYSTEM    = UTC
MEAN_ELEMENT_THEORY = SGP/SGP4

EPOCH          = 2025-12-27T22:00:03.999744
MEAN_MOTION    = 15.50564594
ECCENTRICITY   = .00014837
INCLINATION    = 43.0001
RA_OF_ASC_NODE = 161.4270
ARG_OF_PERICENTER = 271.7242
MEAN_ANOMALY   = 46.4268

EPHEMERIS_TYPE = 0
CLASSIFICATION_TYPE = U
NORAD_CAT_ID   = 66800
ELEMENT_SET_NO = 999
REV_AT_EPOCH   = 519
BSTAR          = -.25297847E-3
MEAN_MOTION_DOT = -.15146E-3
MEAN_MOTION_DDOT = 0

CCSDS_OMM_VERS = 2.0
CREATION_DATE  = 
ORIGINATOR     = 

OBJECT_NAME    = STARLINK-36080
OBJECT_ID      = 2025-278L
CENTER_NAME    = EARTH
REF_FRAME      = TEME
TIME_SYSTEM    = UTC
MEAN_ELEMENT_THEORY = SGP/SGP4

EPOCH          = 2025-12-27T22:00:03.999744
MEAN_MOTION    = 15.42883558
ECCENTRICITY   = .00018674
INCLINATION    = 43.0003
RA_OF_ASC_NODE = 161.4611
ARG_OF_PERICENTER = 286.2403
MEAN_ANOMALY   = 17.3804

EPHEMERIS_TYPE = 0
CLASSIFICATION_TYPE = U
NORAD_CAT_ID   = 66801
ELEMENT_SET_NO = 999
REV_AT_EPOCH   = 539
BSTAR          = -.54436877E-1
MEAN_MOTION_DOT = -.215909E-1
MEAN_MOTION_DDOT = 0

CCSDS_OMM_VERS = 2.0
CREATION_DATE  = 
ORIGINATOR     = 

OBJECT_NAME    = STARLINK-35604
OBJECT_ID      = 2025-278M
CENTER_NAME    = EARTH
REF_FRAME      = TEME
TIME_SYSTEM    = UTC
MEAN_ELEMENT_THEORY = SGP/SGP4

EPOCH          = 2025-12-27T17:33:05.482944
MEAN_MOTION    = 15.50589534
ECCENTRICITY   = .00010916
INCLINATION    = 43.0002
RA_OF_ASC_NODE = 162.5140
ARG_OF_PERICENTER = 255.4120
MEAN_ANOMALY   = 104.6619

EPHEMERIS_TYPE = 0
CLASSIFICATION_TYPE = U
NORAD_CAT_ID   = 66802
ELEMENT_SET_NO = 999
REV_AT_EPOCH   = 418
BSTAR          = .1408811E-2
MEAN_MOTION_DOT = .8322E-3
MEAN_MOTION_DDOT = 0

CCSDS_OMM_VERS = 2.0
CREATION_DATE  = 
ORIGINATOR     = 

OBJECT_NAME    = STARLINK-35565
OBJECT_ID      = 2025-278N
CENTER_NAME    = EARTH
REF_FRAME      = TEME
TIME_SYSTEM    = UTC
MEAN_ELEMENT_THEORY = SGP/SGP4

EPOCH          = 2025-12-27T22:00:03.999744
MEAN_MOTION    = 15.40639017
ECCENTRICITY   = .00017485
INCLINATION    = 42.9998
RA_OF_ASC_NODE = 161.6683
ARG_OF_PERICENTER = 278.5881
MEAN_ANOMALY   = 299.7609

EPHEMERIS_TYPE = 0
CLASSIFICATION_TYPE = U
NORAD_CAT_ID   = 66803
ELEMENT_SET_NO = 999
REV_AT_EPOCH   = 548
BSTAR          = .31727247E-2
MEAN_MOTION_DOT = .134315E-2
MEAN_MOTION_DDOT = 0

CCSDS_OMM_VERS = 2.0
CREATION_DATE  = 
ORIGINATOR     = 

OBJECT_NAME    = STARLINK-36038
OBJECT_ID      = 2025-278P
CENTER_NAME    = EARTH
REF_FRAME      = TEME
TIME_SYSTEM    = UTC
MEAN_ELEMENT_THEORY = SGP/SGP4

EPOCH          = 2025-12-27T22:00:03.999744
MEAN_MOTION    = 15.40641961
ECCENTRICITY   = .00018351
INCLINATION    = 42.9998
RA_OF_ASC_NODE = 161.6384
ARG_OF_PERICENTER = 275.7219
MEAN_ANOMALY   = 315.0605

EPHEMERIS_TYPE = 0
CLASSIFICATION_TYPE = U
NORAD_CAT_ID   = 66804
ELEMENT_SET_NO = 999
REV_AT_EPOCH   = 539
BSTAR          = .31668702E-2
MEAN_MOTION_DOT = .134076E-2
MEAN_MOTION_DDOT = 0

CCSDS_OMM_VERS = 2.0
CREATION_DATE  = 
ORIGINATOR     = 

OBJECT_NAME    = STARLINK-36049
OBJECT_ID      = 2025-278Q
CENTER_NAME    = EARTH
REF_FRAME      = TEME
TIME_SYSTEM    = UTC
MEAN_ELEMENT_THEORY = SGP/SGP4

EPOCH          = 2025-12-27T22:00:03.999744
MEAN_MOTION    = 15.40627720
ECCENTRICITY   = .00019936
INCLINATION    = 42.9999
RA_OF_ASC_NODE = 161.5767
ARG_OF_PERICENTER = 277.2210
MEAN_ANOMALY   = 338.4645

EPHEMERIS_TYPE = 0
CLASSIFICATION_TYPE = U
NORAD_CAT_ID   = 66805
ELEMENT_SET_NO = 999
REV_AT_EPOCH   = 539
BSTAR          = .24731636E-2
MEAN_MOTION_DOT = .104179E-2
MEAN_MOTION_DDOT = 0

CCSDS_OMM_VERS = 2.0
CREATION_DATE  = 
ORIGINATOR     = 

OBJECT_NAME    = STARLINK-36069
OBJECT_ID      = 2025-278R
CENTER_NAME    = EARTH
REF_FRAME      = TEME
TIME_SYSTEM    = UTC
MEAN_ELEMENT_THEORY = SGP/SGP4

EPOCH          = 2025-12-27T22:00:03.999744
MEAN_MOTION    = 15.44842429
ECCENTRICITY   = .00014986
INCLINATION    = 43.0002
RA_OF_ASC_NODE = 161.4443
ARG_OF_PERICENTER = 271.4626
MEAN_ANOMALY   = 39.4287

EPHEMERIS_TYPE = 0
CLASSIFICATION_TYPE = U
NORAD_CAT_ID   = 66806
ELEMENT_SET_NO = 999
REV_AT_EPOCH   = 519
BSTAR          = -.46582766E-1
MEAN_MOTION_DOT = -.19955E-1
MEAN_MOTION_DDOT = 0

CCSDS_OMM_VERS = 2.0
CREATION_DATE  = 
ORIGINATOR     = 

OBJECT_NAME    = STARLINK-36000
OBJECT_ID      = 2025-278S
CENTER_NAME    = EARTH
REF_FRAME      = TEME
TIME_SYSTEM    = UTC
MEAN_ELEMENT_THEORY = SGP/SGP4

EPOCH          = 2025-12-27T17:29:42.625248
MEAN_MOTION    = 15.50528266
ECCENTRICITY   = .00083714
INCLINATION    = 42.9995
RA_OF_ASC_NODE = 162.4941
ARG_OF_PERICENTER = 252.3089
MEAN_ANOMALY   = 107.6857

EPHEMERIS_TYPE = 0
CLASSIFICATION_TYPE = U
NORAD_CAT_ID   = 66807
ELEMENT_SET_NO = 999
REV_AT_EPOCH   = 418
BSTAR          = .22282083E-2
MEAN_MOTION_DOT = .132524E-2
MEAN_MOTION_DDOT = 0

CCSDS_OMM_VERS = 2.0
CREATION_DATE  = 
ORIGINATOR     = 

OBJECT_NAME    = STARLINK-36071
OBJECT_ID      = 2025-278T
CENTER_NAME    = EARTH
REF_FRAME      = TEME
TIME_SYSTEM    = UTC
MEAN_ELEMENT_THEORY = SGP/SGP4

EPOCH          = 2025-12-27T22:07:25.331808
MEAN_MOTION    = 15.50559776
ECCENTRICITY   = .00054795
INCLINATION    = 43.0012
RA_OF_ASC_NODE = 161.3607
ARG_OF_PERICENTER = 277.2861
MEAN_ANOMALY   = 82.7377

EPHEMERIS_TYPE = 0
CLASSIFICATION_TYPE = U
NORAD_CAT_ID   = 66808
ELEMENT_SET_NO = 999
REV_AT_EPOCH   = 421
BSTAR          = .18884239E-2
MEAN_MOTION_DOT = .112014E-2
MEAN_MOTION_DDOT = 0

